1 37673U 11024A   14017.11282358  .00000494  00000-0  85910-4 0  9991
2 37673 098.0127 026.4820 0001077 096.8388 303.6815 14.72353352140000
